{
    "links": {
        "self": "http://www.neowsapp.com/rest/v1/neo/3647999?api_key=iIulBulltgU6a56xZRHN4H3l9WmuAYTsLGpBGhQ2"
    },
    "id": "3647999",
    "neo_reference_id": "3647999",
    "name": "(2013 RJ43)",
    "designation": "2013 RJ43",
    "nasa_jpl_url": "http://ssd.jpl.nasa.gov/sbdb.cgi?sstr=3647999",
    "absolute_magnitude_h": 21.8,
    "estimated_diameter": {
        "kilometers": {
            "estimated_diameter_min": 0.1160259082,
            "estimated_diameter_max": 0.2594418179
        },
        "meters": {
            "estimated_diameter_min": 116.0259082094,
            "estimated_diameter_max": 259.4418179074
        },
        "miles": {
            "estimated_diameter_min": 0.0720951346,
            "estimated_diameter_max": 0.1612096218
        },
        "feet": {
            "estimated_diameter_min": 380.6624406898,
            "estimated_diameter_max": 851.1870938635
        }
    },
    "is_potentially_hazardous_asteroid": false,
    "close_approach_data": [
        {
            "close_approach_date": "2013-09-02",
            "close_approach_date_full": "2013-Sep-02 17:17",
            "epoch_date_close_approach": 1378142220000,
            "relative_velocity": {
                "kilometers_per_second": "6.2395128518",
                "kilometers_per_hour": "22462.2462666083",
                "miles_per_hour": "13957.1662982712"
            },
            "miss_distance": {
                "astronomical": "0.2674205983",
                "lunar": "104.0266127387",
                "kilometers": "40005551.899805621",
                "miles": "24858297.2559787298"
            },
            "orbiting_body": "Earth"
        },
        {
            "close_approach_date": "2030-08-26",
            "close_approach_date_full": "2030-Aug-26 15:42",
            "epoch_date_close_approach": 1913989320000,
            "relative_velocity": {
                "kilometers_per_second": "8.4757123341",
                "kilometers_per_hour": "30512.5644026804",
                "miles_per_hour": "18959.3209200988"
            },
            "miss_distance": {
                "astronomical": "0.3893293636",
                "lunar": "151.4491224404",
                "kilometers": "58242843.523015532",
                "miles": "36190424.7929050616"
            },
            "orbiting_body": "Earth"
        }
    ],
    "orbital_data": {
        "orbit_id": "11",
        "orbit_determination_date": "2017-04-06 08:44:44",
        "first_observation_date": "2013-09-10",
        "last_observation_date": "2013-10-08",
        "data_arc_in_days": 28,
        "observations_used": 34,
        "orbit_uncertainty": "7",
        "minimum_orbit_intersection": ".237523",
        "jupiter_tisserand_invariant": "3.449",
        "epoch_osculation": "2459000.5",
        "eccentricity": ".4552069319935069",
        "semi_major_axis": "2.266574972402568",
        "inclination": "11.05612578781959",
        "ascending_node_longitude": "175.598055518555",
        "orbital_period": "1246.38886463732",
        "perihelion_distance": "1.234814333081927",
        "perihelion_argument": "155.9733389270013",
        "aphelion_distance": "3.298335611723208",
        "perihelion_time": "2459017.183103457013",
        "mean_anomaly": "355.1813455536027",
        "mean_motion": ".2888344161392636",
        "equinox": "J2000",
        "orbit_class": {
            "orbit_class_type": "AMO",
            "orbit_class_description": "Near-Earth asteroid orbits similar to that of 1221 Amor",
            "orbit_class_range": "1.017 AU < q (perihelion) < 1.3 AU"
        }
    },
    "is_sentry_object": false
}